GSAT0220 (GALILEO 24)   
1 43567U 18060D   24158.28262433 -.00000096  00000+0  00000+0 0  9994
2 43567  57.3060   1.7640 0002096 322.1052  37.9167  1.70475542 36544
BEIDOU-3 M13            
1 43622U 18072A   24157.46522908 -.00000061  00000+0  00000+0 0  9996
2 43622  55.9846  87.2707 0007818 307.8717  52.0248  1.86231499 38841
BEIDOU-3 M14            
1 43623U 18072B   24157.33068471 -.00000060  00000+0  00000+0 0  9992
2 43623  55.9863  87.2683 0006033 333.1325  26.8031  1.86231503 38833
GPS BIII-1              
1 43873U 18109A   24158.25651287 -.00000002  00000+0  00000+0 0  9991
2 43873  55.2936 121.4595 0028906 195.6046 261.5835  2.00555517 40217
METEOR-M2 2             
1 44387U 19038A   24158.53977655  .00000093  00000+0  60396-4 0  9993
2 44387  98.8261 127.7222 0001672  36.9344 323.1949 14.23891461255877
GPS BIII-2              
1 44506U 19056A   24158.55610437 -.00000099  00000+0  00000+0 0  9998
2 44506  55.8411   0.5036 0042033 188.2344  26.3475  2.00571650 35215
BEIDOU-3 M23            
1 44542U 19061A   24158.24493347  .00000068  00000+0  00000+0 0  9994
2 44542  54.4435 207.7285 0007465 343.8401  16.2275  1.86231219 31990
BEIDOU-3 M24            
1 44543U 19061B   24158.62722105  .00000064  00000+0  00000+0 0  9990
2 44543  54.4421 207.6844 0005037 322.3281 206.2996  1.86231590 32003
BEIDOU-3 M21            
1 44793U 19078A   24156.47982487 -.00000096  00000+0  00000+0 0  9993
2 44793  54.5729 325.8040 0006370  32.8735 327.1547  1.86232117 30819
BEIDOU-3 M22            
1 44794U 19078B   24155.53575375 -.00000091  00000+0  00000+0 0  9999
2 44794  54.5475 325.8131 0004174  31.5787 328.4384  1.86232558 30803
ELEKTRO-L 3             
1 44903U 19095A   24158.25049407 -.00000096  00000+0  00000+0 0  9999
2 44903   0.0725 216.0203 0000487 202.7728   2.5955  1.00273735 16266
GPS BIII-3              
1 45854U 20041A   24157.59439354 -.00000085  00000+0  00000+0 0  9996
2 45854  56.1138  57.8818 0042364 192.9990 342.9511  2.00558762 29165
COSMOS 2547             
1 46805U 20075A   24158.45049648  .00000061  00000+0  00000+0 0  9992
2 46805  64.5993 217.2347 0008447 240.4454 119.5573  2.13103080 28125
GPS BIII-4              
1 46826U 20078A   24158.40149862  .00000016  00000+0  00000+0 0  9992
2 46826  54.1842 240.8466 0046127 196.5880 180.4608  2.00560129 26650
GSAT0223 (GALILEO 27)   
1 49809U 21116A   24155.51105705 -.00000088  00000+0  00000+0 0  9997
2 49809  57.2973   1.7332 0001341 126.6486  62.8260  1.70475490 15505
GSAT0224 (GALILEO 28)   
1 49810U 21116B   24158.24596338 -.00000096  00000+0  00000+0 0  9997
2 49810  57.2986   1.6577 0001214 110.4733  69.9791  1.70475709 15573
GOES 18                 
1 51850U 22021A   24158.59064324  .00000098  00000+0  00000+0 0  9994
2 51850   0.0044  57.0335 0000082 276.8950 357.1708  1.00271928  8378
METEOR-M2 3             
1 57166U 23091A   24158.57500615  .00000071  00000+0  50121-4 0  9999
2 57166  98.7132 213.3434 0004572 147.4905 212.6556 14.23897109 49111
METEOR-M2 4             
1 59051U 24039A   24158.58196887  .00000074  00000+0  52864-4 0  9999
2 59051  98.5971 120.7368 0007577 147.2855 212.8793 14.22229907 13987
